[{"OBJECT_NAME":"ONEWEB-0356","OBJECT_ID":"2021-090E","EPOCH":"2025-12-30T06:55:29.792928","MEAN_MOTION":13.20772857,"ECCENTRICITY":0.00026532,"INCLINATION":87.9222,"RA_OF_ASC_NODE":308.1213,"ARG_OF_PERICENTER":87.2441,"MEAN_ANOMALY":272.8996,"EPHEMERIS_TYPE":0,"CLASSIFICATION_TYPE":"U","NORAD_CAT_ID":49283,"ELEMENT_SET_NO":999,"REV_AT_EPOCH":20753,"BSTAR":0.00024749257,"MEAN_MOTION_DOT":1.14e-6,"MEAN_MOTION_DDOT":0},{"OBJECT_NAME":"ONEWEB-0358","OBJECT_ID":"2021-090F","EPOCH":"2025-12-30T05:49:35.861088","MEAN_MOTION":13.20772264,"ECCENTRICITY":0.00018111,"INCLINATION":87.9224,"RA_OF_ASC_NODE":308.1315,"ARG_OF_PERICENTER":82.781,"MEAN_ANOMALY":277.3529,"EPHEMERIS_TYPE":0,"CLASSIFICATION_TYPE":"U","NORAD_CAT_ID":49284,"ELEMENT_SET_NO":999,"REV_AT_EPOCH":20825,"BSTAR":-0.00011050491,"MEAN_MOTION_DOT":-3.2e-7,"MEAN_MOTION_DDOT":0},{"OBJECT_NAME":"ONEWEB-0359","OBJECT_ID":"2021-090G","EPOCH":"2025-12-30T05:45:02.730816","MEAN_MOTION":13.20770994,"ECCENTRICITY":0.00016161,"INCLINATION":87.922,"RA_OF_ASC_NODE":308.1306,"ARG_OF_PERICENTER":91.8062,"MEAN_ANOMALY":268.3256,"EPHEMERIS_TYPE":0,"CLASSIFICATION_TYPE":"U","NORAD_CAT_ID":49285,"ELEMENT_SET_NO":999,"REV_AT_EPOCH":20823,"BSTAR":-8.7383094e-5,"MEAN_MOTION_DOT":-2.3e-7,"MEAN_MOTION_DDOT":0},{"OBJECT_NAME":"ONEWEB-0360","OBJECT_ID":"2021-090H","EPOCH":"2025-12-30T07:20:30.851232","MEAN_MOTION":13.20771893,"ECCENTRICITY":0.00016697,"INCLINATION":87.9211,"RA_OF_ASC_NODE":308.1249,"ARG_OF_PERICENTER":81.0156,"MEAN_ANOMALY":279.1166,"EPHEMERIS_TYPE":0,"CLASSIFICATION_TYPE":"U","NORAD_CAT_ID":49286,"ELEMENT_SET_NO":999,"REV_AT_EPOCH":20755,"BSTAR":0.00011176977,"MEAN_MOTION_DOT":5.8e-7,"MEAN_MOTION_DDOT":0},{"OBJECT_NAME":"ONEWEB-0361","OBJECT_ID":"2021-090J","EPOCH":"2025-12-30T05:04:09.557472","MEAN_MOTION":13.20770943,"ECCENTRICITY":0.00019162,"INCLINATION":87.9219,"RA_OF_ASC_NODE":308.1408,"ARG_OF_PERICENTER":81.5776,"MEAN_ANOMALY":278.5574,"EPHEMERIS_TYPE":0,"CLASSIFICATION_TYPE":"U","NORAD_CAT_ID":49287,"ELEMENT_SET_NO":999,"REV_AT_EPOCH":20799,"BSTAR":-0.0001708709,"MEAN_MOTION_DOT":-5.6e-7,"MEAN_MOTION_DDOT":0},{"OBJECT_NAME":"ONEWEB-0362","OBJECT_ID":"2021-090K","EPOCH":"2025-12-30T04:21:30.729024","MEAN_MOTION":13.19725755,"ECCENTRICITY":0.00015658,"INCLINATION":87.9201,"RA_OF_ASC_NODE":338.6114,"ARG_OF_PERICENTER":80.2791,"MEAN_ANOMALY":279.8519,"EPHEMERIS_TYPE":0,"CLASSIFICATION_TYPE":"U","NORAD_CAT_ID":49288,"ELEMENT_SET_NO":999,"REV_AT_EPOCH":20462,"BSTAR":8.5962218e-5,"MEAN_MOTION_DOT":4.7e-7,"MEAN_MOTION_DDOT":0},{"OBJECT_NAME":"ONEWEB-0363","OBJECT_ID":"2021-090L","EPOCH":"2025-12-30T05:26:51.948960","MEAN_MOTION":13.20773563,"ECCENTRICITY":0.00020628,"INCLINATION":87.9223,"RA_OF_ASC_NODE":308.1371,"ARG_OF_PERICENTER":84.2942,"MEAN_ANOMALY":275.8427,"EPHEMERIS_TYPE":0,"CLASSIFICATION_TYPE":"U","NORAD_CAT_ID":49289,"ELEMENT_SET_NO":999,"REV_AT_EPOCH":20800,"BSTAR":1.2326694e-5,"MEAN_MOTION_DOT":1.8e-7,"MEAN_MOTION_DDOT":0},{"OBJECT_NAME":"ONEWEB-0364","OBJECT_ID":"2021-090M","EPOCH":"2025-12-30T06:21:24.821568","MEAN_MOTION":13.20772929,"ECCENTRICITY":0.00018678,"INCLINATION":87.921,"RA_OF_ASC_NODE":308.1511,"ARG_OF_PERICENTER":80.8607,"MEAN_ANOMALY":279.2737,"EPHEMERIS_TYPE":0,"CLASSIFICATION_TYPE":"U","NORAD_CAT_ID":49290,"ELEMENT_SET_NO":999,"REV_AT_EPOCH":20914,"BSTAR":0.00022342221,"MEAN_MOTION_DOT":1.04e-6,"MEAN_MOTION_DDOT":0},{"OBJECT_NAME":"ONEWEB-0365","OBJECT_ID":"2021-090N","EPOCH":"2025-12-30T04:35:10.043808","MEAN_MOTION":13.19725243,"ECCENTRICITY":0.00017566,"INCLINATION":87.922,"RA_OF_ASC_NODE":338.578,"ARG_OF_PERICENTER":80.3825,"MEAN_ANOMALY":279.7506,"EPHEMERIS_TYPE":0,"CLASSIFICATION_TYPE":"U","NORAD_CAT_ID":49291,"ELEMENT_SET_NO":999,"REV_AT_EPOCH":20413,"BSTAR":1.3132594e-5,"MEAN_MOTION_DOT":1.8e-7,"MEAN_MOTION_DDOT":0},{"OBJECT_NAME":"ONEWEB-0366","OBJECT_ID":"2021-090P","EPOCH":"2025-12-30T07:15:06.903936","MEAN_MOTION":13.14504182,"ECCENTRICITY":0.00018431,"INCLINATION":87.8999,"RA_OF_ASC_NODE":323.3677,"ARG_OF_PERICENTER":82.9086,"MEAN_ANOMALY":277.2253,"EPHEMERIS_TYPE":0,"CLASSIFICATION_TYPE":"U","NORAD_CAT_ID":49292,"ELEMENT_SET_NO":999,"REV_AT_EPOCH":20537,"BSTAR":-0.00055290619,"MEAN_MOTION_DOT":-1.92e-6,"MEAN_MOTION_DDOT":0},{"OBJECT_NAME":"ONEWEB-0367","OBJECT_ID":"2021-090Q","EPOCH":"2025-12-30T07:13:41.725632","MEAN_MOTION":13.2077258,"ECCENTRICITY":0.00016435,"INCLINATION":87.9223,"RA_OF_ASC_NODE":308.1215,"ARG_OF_PERICENTER":72.3265,"MEAN_ANOMALY":287.8048,"EPHEMERIS_TYPE":0,"CLASSIFICATION_TYPE":"U","NORAD_CAT_ID":49293,"ELEMENT_SET_NO":999,"REV_AT_EPOCH":20753,"BSTAR":6.495904e-5,"MEAN_MOTION_DOT":3.9e-7,"MEAN_MOTION_DDOT":0},{"OBJECT_NAME":"ONEWEB-0368","OBJECT_ID":"2021-090R","EPOCH":"2025-12-30T06:35:04.093152","MEAN_MOTION":13.20772691,"ECCENTRICITY":0.00025756,"INCLINATION":87.9215,"RA_OF_ASC_NODE":308.1548,"ARG_OF_PERICENTER":71.1726,"MEAN_ANOMALY":288.9687,"EPHEMERIS_TYPE":0,"CLASSIFICATION_TYPE":"U","NORAD_CAT_ID":49294,"ELEMENT_SET_NO":999,"REV_AT_EPOCH":20868,"BSTAR":0.00013040101,"MEAN_MOTION_DOT":6.6e-7,"MEAN_MOTION_DDOT":0},{"OBJECT_NAME":"ONEWEB-0369","OBJECT_ID":"2021-090S","EPOCH":"2025-12-30T04:28:18.920640","MEAN_MOTION":13.19727374,"ECCENTRICITY":0.0001824,"INCLINATION":87.9212,"RA_OF_ASC_NODE":338.6043,"ARG_OF_PERICENTER":81.1937,"MEAN_ANOMALY":278.9402,"EPHEMERIS_TYPE":0,"CLASSIFICATION_TYPE":"U","NORAD_CAT_ID":49295,"ELEMENT_SET_NO":999,"REV_AT_EPOCH":20412,"BSTAR":3.5915859e-5,"MEAN_MOTION_DOT":2.7e-7,"MEAN_MOTION_DDOT":0},{"OBJECT_NAME":"ONEWEB-0370","OBJECT_ID":"2021-090T","EPOCH":"2025-12-30T05:38:14.123616","MEAN_MOTION":13.20772057,"ECCENTRICITY":0.00014672,"INCLINATION":87.922,"RA_OF_ASC_NODE":308.1384,"ARG_OF_PERICENTER":81.3285,"MEAN_ANOMALY":278.8014,"EPHEMERIS_TYPE":0,"CLASSIFICATION_TYPE":"U","NORAD_CAT_ID":49296,"ELEMENT_SET_NO":999,"REV_AT_EPOCH":20756,"BSTAR":-0.00021371102,"MEAN_MOTION_DOT":-7.4e-7,"MEAN_MOTION_DDOT":0},{"OBJECT_NAME":"ONEWEB-0371","OBJECT_ID":"2021-090U","EPOCH":"2025-12-30T04:39:42.425856","MEAN_MOTION":13.19725228,"ECCENTRICITY":0.00016774,"INCLINATION":87.9212,"RA_OF_ASC_NODE":338.5905,"ARG_OF_PERICENTER":80.7294,"MEAN_ANOMALY":279.4029,"EPHEMERIS_TYPE":0,"CLASSIFICATION_TYPE":"U","NORAD_CAT_ID":49297,"ELEMENT_SET_NO":999,"REV_AT_EPOCH":20416,"BSTAR":-0.00013695749,"MEAN_MOTION_DOT":-4.2e-7,"MEAN_MOTION_DDOT":0},{"OBJECT_NAME":"ONEWEB-0372","OBJECT_ID":"2021-090V","EPOCH":"2025-12-30T07:11:12.797088","MEAN_MOTION":13.20772459,"ECCENTRICITY":0.00018132,"INCLINATION":87.9219,"RA_OF_ASC_NODE":308.1246,"ARG_OF_PERICENTER":74.3402,"MEAN_ANOMALY":285.7931,"EPHEMERIS_TYPE":0,"CLASSIFICATION_TYPE":"U","NORAD_CAT_ID":49298,"ELEMENT_SET_NO":999,"REV_AT_EPOCH":20754,"BSTAR":0.00039023245,"MEAN_MOTION_DOT":1.72e-6,"MEAN_MOTION_DDOT":0},{"OBJECT_NAME":"ONEWEB-0373","OBJECT_ID":"2021-090W","EPOCH":"2025-12-30T06:00:57.647808","MEAN_MOTION":13.20771522,"ECCENTRICITY":0.00018025,"INCLINATION":87.9209,"RA_OF_ASC_NODE":308.1471,"ARG_OF_PERICENTER":81.6943,"MEAN_ANOMALY":278.4395,"EPHEMERIS_TYPE":0,"CLASSIFICATION_TYPE":"U","NORAD_CAT_ID":49299,"ELEMENT_SET_NO":999,"REV_AT_EPOCH":20872,"BSTAR":0.00017714228,"MEAN_MOTION_DOT":8.5e-7,"MEAN_MOTION_DDOT":0},{"OBJECT_NAME":"ONEWEB-0374","OBJECT_ID":"2021-090X","EPOCH":"2025-12-30T06:56:51.360576","MEAN_MOTION":13.14502965,"ECCENTRICITY":0.00022766,"INCLINATION":87.9008,"RA_OF_ASC_NODE":323.3491,"ARG_OF_PERICENTER":85.9092,"MEAN_ANOMALY":274.2298,"EPHEMERIS_TYPE":0,"CLASSIFICATION_TYPE":"U","NORAD_CAT_ID":49300,"ELEMENT_SET_NO":999,"REV_AT_EPOCH":20537,"BSTAR":6.1568729e-5,"MEAN_MOTION_DOT":3.6e-7,"MEAN_MOTION_DDOT":0},{"OBJECT_NAME":"ONEWEB-0375","OBJECT_ID":"2021-090Y","EPOCH":"2025-12-30T05:42:47.476800","MEAN_MOTION":13.20771771,"ECCENTRICITY":0.00021091,"INCLINATION":87.9218,"RA_OF_ASC_NODE":308.1303,"ARG_OF_PERICENTER":92.6534,"MEAN_ANOMALY":267.4841,"EPHEMERIS_TYPE":0,"CLASSIFICATION_TYPE":"U","NORAD_CAT_ID":49301,"ELEMENT_SET_NO":999,"REV_AT_EPOCH":20822,"BSTAR":-1.1547062e-5,"MEAN_MOTION_DOT":8.0e-8,"MEAN_MOTION_DDOT":0},{"OBJECT_NAME":"ONEWEB-0376","OBJECT_ID":"2021-090Z","EPOCH":"2025-12-30T04:37:26.228352","MEAN_MOTION":13.19724051,"ECCENTRICITY":0.00017997,"INCLINATION":87.9217,"RA_OF_ASC_NODE":338.5794,"ARG_OF_PERICENTER":76.028,"MEAN_ANOMALY":284.1053,"EPHEMERIS_TYPE":0,"CLASSIFICATION_TYPE":"U","NORAD_CAT_ID":49302,"ELEMENT_SET_NO":999,"REV_AT_EPOCH":20416,"BSTAR":1.5291934e-5,"MEAN_MOTION_DOT":1.9e-7,"MEAN_MOTION_DDOT":0},{"OBJECT_NAME":"ONEWEB-0377","OBJECT_ID":"2021-090AA","EPOCH":"2025-12-30T07:11:37.508352","MEAN_MOTION":13.20771024,"ECCENTRICITY":0.00016707,"INCLINATION":87.922,"RA_OF_ASC_NODE":308.1204,"ARG_OF_PERICENTER":83.276,"MEAN_ANOMALY":276.8563,"EPHEMERIS_TYPE":0,"CLASSIFICATION_TYPE":"U","NORAD_CAT_ID":49303,"ELEMENT_SET_NO":999,"REV_AT_EPOCH":20822,"BSTAR":1.4307352e-5,"MEAN_MOTION_DOT":1.9e-7,"MEAN_MOTION_DDOT":0},{"OBJECT_NAME":"ONEWEB-0378","OBJECT_ID":"2021-090AB","EPOCH":"2025-12-30T05:54:21.056256","MEAN_MOTION":13.20772323,"ECCENTRICITY":0.00019065,"INCLINATION":87.9214,"RA_OF_ASC_NODE":308.1446,"ARG_OF_PERICENTER":80.7736,"MEAN_ANOMALY":279.3613,"EPHEMERIS_TYPE":0,"CLASSIFICATION_TYPE":"U","NORAD_CAT_ID":49304,"ELEMENT_SET_NO":999,"REV_AT_EPOCH":20748,"BSTAR":0.00014838551,"MEAN_MOTION_DOT":7.3e-7,"MEAN_MOTION_DDOT":0},{"OBJECT_NAME":"ONEWEB-0379","OBJECT_ID":"2021-090AC","EPOCH":"2025-12-30T06:50:01.048704","MEAN_MOTION":13.1450311,"ECCENTRICITY":0.00018898,"INCLINATION":87.9007,"RA_OF_ASC_NODE":323.359,"ARG_OF_PERICENTER":80.4383,"MEAN_ANOMALY":279.696,"EPHEMERIS_TYPE":0,"CLASSIFICATION_TYPE":"U","NORAD_CAT_ID":49305,"ELEMENT_SET_NO":999,"REV_AT_EPOCH":20537,"BSTAR":0.00024883915,"MEAN_MOTION_DOT":1.05e-6,"MEAN_MOTION_DDOT":0}]
